{"type": "FeatureCollection", "features": [ {"type": "Feature", "properties": {"norad_id": 30960, "name": "FENGYUN 1C DEB", "group": "fengyun-1c-debris", "lat": -30.34912336912841, "lon": 97.26841424417921, "alt_km": 774.8370893575229, "timestamp": "2025-12-02T23:34:15.796119+00:00", "meta": {"OBJECT_NAME": "FENGYUN 1C DEB", "OBJECT_ID": "1999-025BBA", "EPOCH": "2025-12-02T12:15:11.105280", "MEAN_MOTION": 14.66504511, "ECCENTRICITY": 0.0194131, "INCLINATION": 98.9764, "RA_OF_ASC_NODE": 91.4423, "ARG_OF_PERICENTER": 195.0781, "MEAN_ANOMALY": 164.4583, "EPHEMERIS_TYPE": 0, "CLASSIFICATION_TYPE": "U", "NORAD_CAT_ID": 30960, "ELEMENT_SET_NO": 999, "REV_AT_EPOCH": 98548, "BSTAR": 0.0019408, "MEAN_MOTION_DOT": 0.00014219, "MEAN_MOTION_DDOT": 0}, "tle": {"line1": "1 30960U 99025BBA 25336.51054520  .00014219  00000+0  19408-2 0  9994", "line2": "2 30960  98.9764  91.4423 0194131 195.0781 164.4583 14.66504511985484"}}, "geometry": {"type": "Point", "coordinates": [97.26841424417921, -30.34912336912841]}}, {"type": "Feature", "properties": {"norad_id": 30967, "name": "FENGYUN 1C DEB", "group": "fengyun-1c-debris", "lat": 7.2497565670199755, "lon": 103.819053816353, "alt_km": 712.9645597792032, "timestamp": "2025-12-02T23:34:15.796129+00:00", "meta": {"OBJECT_NAME": "FENGYUN 1C DEB", "OBJECT_ID": "1999-025BBH", "EPOCH": "2025-12-01T07:12:54.811296", "MEAN_MOTION": 14.56983654, "ECCENTRICITY": 0.00949692, "INCLINATION": 98.7616, "RA_OF_ASC_NODE": 280.9273, "ARG_OF_PERICENTER": 275.1613, "MEAN_ANOMALY": 83.875, "EPHEMERIS_TYPE": 0, "CLASSIFICATION_TYPE": "U", "NORAD_CAT_ID": 30967, "ELEMENT_SET_NO": 999, "REV_AT_EPOCH": 98847, "BSTAR": 0.0012117457, "MEAN_MOTION_DOT": 5.739e-05, "MEAN_MOTION_DDOT": 0}, "tle": {"line1": "1 30967U 99025BBH 25335.30063439  .00005739  00000+0  12117-2 0  9993", "line2": "2 30967  98.7616 280.9273 0094969 275.1613  83.8750 14.56983654988475"}}, "geometry": {"type": "Point", "coordinates": [103.819053816353, 7.2497565670199755]}}, {"type": "Feature", "properties": {"norad_id": 30971, "name": "FENGYUN 1C DEB", "group": "fengyun-1c-debris", "lat": -46.48441227648011, "lon": -170.28890694053558, "alt_km": 548.263182214293, "timestamp": "2025-12-02T23:34:15.796140+00:00", "meta": {"OBJECT_NAME": "FENGYUN 1C DEB", "OBJECT_ID": "1999-025BBM", "EPOCH": "2025-12-02T09:33:03.615264", "MEAN_MOTION": 14.7154844, "ECCENTRICITY": 0.0163714, "INCLINATION": 99.2118, "RA_OF_ASC_NODE": 18.8916, "ARG_OF_PERICENTER": 223.1495, "MEAN_ANOMALY": 150.9701, "EPHEMERIS_TYPE": 0, "CLASSIFICATION_TYPE": "U", "NORAD_CAT_ID": 30971, "ELEMENT_SET_NO": 999, "REV_AT_EPOCH": 99565, "BSTAR": 0.00076005, "MEAN_MOTION_DOT": 5.755e-05, "MEAN_MOTION_DDOT": 0}, "tle": {"line1": "1 30971U 99025BBM 25336.39795851  .00005755  00000+0  76005-3 0  9993", "line2": "2 30971  99.2118  18.8916 0163714 223.1495 150.9701 14.71548440995658"}}, "geometry": {"type": "Point", "coordinates": [-170.28890694053558, -46.48441227648011]}}, {"type": "Feature", "properties": {"norad_id": 30979, "name": "FENGYUN 1C DEB", "group": "fengyun-1c-debris", "lat": 38.87549822099576, "lon": -130.68722602817468, "alt_km": 708.896907436234, "timestamp": "2025-12-02T23:34:15.796150+00:00", "meta": {"OBJECT_NAME": "FENGYUN 1C DEB", "OBJECT_ID": "1999-025BBV", "EPOCH": "2025-12-02T04:36:50.855328", "MEAN_MOTION": 14.78416107, "ECCENTRICITY": 0.01913935, "INCLINATION": 97.83, "RA_OF_ASC_NODE": 234.9135, "ARG_OF_PERICENTER": 275.775, "MEAN_ANOMALY": 240.4379, "EPHEMERIS_TYPE": 0, "CLASSIFICATION_TYPE": "U", "NORAD_CAT_ID": 30979, "ELEMENT_SET_NO": 999, "REV_AT_EPOCH": 98989, "BSTAR": 0.0013589928, "MEAN_MOTION_DOT": 0.00013437, "MEAN_MOTION_DDOT": 0}, "tle": {"line1": "1 30979U 99025BBV 25336.19225527  .00013437  00000+0  13590-2 0  9992", "line2": "2 30979  97.8300 234.9135 0191393 275.7750 240.4379 14.78416107989894"}}, "geometry": {"type": "Point", "coordinates": [-130.68722602817468, 38.87549822099576]}}, {"type": "Feature", "properties": {"norad_id": 30982, "name": "FENGYUN 1C DEB", "group": "fengyun-1c-debris", "lat": 33.809867843440244, "lon": 152.99183677979633, "alt_km": 843.5773834715756, "timestamp": "2025-12-02T23:34:15.796160+00:00", "meta": {"OBJECT_NAME": "FENGYUN 1C DEB", "OBJECT_ID": "1999-025BBY", "EPOCH": "2025-12-02T04:57:42.054336", "MEAN_MOTION": 14.50885423, "ECCENTRICITY": 0.0181329, "INCLINATION": 98.2164, "RA_OF_ASC_NODE": 326.6814, "ARG_OF_PERICENTER": 345.0364, "MEAN_ANOMALY": 72.4158, "EPHEMERIS_TYPE": 0, "CLASSIFICATION_TYPE": "U", "NORAD_CAT_ID": 30982, "ELEMENT_SET_NO": 999, "REV_AT_EPOCH": 70901, "BSTAR": 0.00052355, "MEAN_MOTION_DOT": 2.502e-05, "MEAN_MOTION_DDOT": 0}, "tle": {"line1": "1 30982U 99025BBY 25336.20673674  .00002502  00000+0  52355-3 0  9992", "line2": "2 30982  98.2164 326.6814 0181329 345.0364  72.4158 14.50885423709017"}}, "geometry": {"type": "Point", "coordinates": [152.99183677979633, 33.809867843440244]}}, {"type": "Feature", "properties": {"norad_id": 30984, "name": "FENGYUN 1C DEB", "group": "fengyun-1c-debris", "lat": 40.94081909657728, "lon": 6.255822666477059, "alt_km": 630.399773181728, "timestamp": "2025-12-02T23:34:15.796170+00:00", "meta": {"OBJECT_NAME": "FENGYUN 1C DEB", "OBJECT_ID": "1999-025BCA", "EPOCH": "2025-12-02T08:28:59.764800", "MEAN_MOTION": 14.5032384, "ECCENTRICITY": 0.0128225, "INCLINATION": 98.2653, "RA_OF_ASC_NODE": 12.8828, "ARG_OF_PERICENTER": 39.8719, "MEAN_ANOMALY": 321.181, "EPHEMERIS_TYPE": 0, "CLASSIFICATION_TYPE": "U", "NORAD_CAT_ID": 30984, "ELEMENT_SET_NO": 999, "REV_AT_EPOCH": 95013, "BSTAR": 0.00092697, "MEAN_MOTION_DOT": 3.97e-05, "MEAN_MOTION_DDOT": 0}, "tle": {"line1": "1 30984U 99025BCA 25336.35346950  .00003970  00000+0  92697-3 0  9997", "line2": "2 30984  98.2653  12.8828 0128225  39.8719 321.1810 14.50323840950139"}}, "geometry": {"type": "Point", "coordinates": [6.255822666477059, 40.94081909657728]}}, {"type": "Feature", "properties": {"norad_id": 30988, "name": "FENGYUN 1C DEB", "group": "fengyun-1c-debris", "lat": -73.21976416805835, "lon": 73.08236959679452, "alt_km": 537.8695581888687, "timestamp": "2025-12-02T23:34:15.796180+00:00", "meta": {"OBJECT_NAME": "FENGYUN 1C DEB", "OBJECT_ID": "1999-025BCE", "EPOCH": "2025-12-02T01:58:05.600928", "MEAN_MOTION": 15.24192693, "ECCENTRICITY": 0.01196485, "INCLINATION": 98.5403, "RA_OF_ASC_NODE": 281.9488, "ARG_OF_PERICENTER": 16.5555, "MEAN_ANOMALY": 343.9532, "EPHEMERIS_TYPE": 0, "CLASSIFICATION_TYPE": "U", "NORAD_CAT_ID": 30988, "ELEMENT_SET_NO": 999, "REV_AT_EPOCH": 99401, "BSTAR": 0.002506517, "MEAN_MOTION_DOT": 0.00075375, "MEAN_MOTION_DDOT": 0}, "tle": {"line1": "1 30988U 99025BCE 25336.08200927  .00075375  00000+0  25065-2 0  9996", "line2": "2 30988  98.5403 281.9488 0119648  16.5555 343.9532 15.24192693994019"}}, "geometry": {"type": "Point", "coordinates": [73.08236959679452, -73.21976416805835]}}, {"type": "Feature", "properties": {"norad_id": 30989, "name": "FENGYUN 1C DEB", "group": "fengyun-1c-debris", "lat": -19.709725141401965, "lon": 53.699896747086036, "alt_km": 906.930384471867, "timestamp": "2025-12-02T23:34:15.796190+00:00", "meta": {"OBJECT_NAME": "FENGYUN 1C DEB", "OBJECT_ID": "1999-025BCF", "EPOCH": "2025-12-02T03:17:06.097632", "MEAN_MOTION": 14.13834483, "ECCENTRICITY": 0.00920669, "INCLINATION": 99.0543, "RA_OF_ASC_NODE": 49.5693, "ARG_OF_PERICENTER": 129.5163, "MEAN_ANOMALY": 231.4193, "EPHEMERIS_TYPE": 0, "CLASSIFICATION_TYPE": "U", "NORAD_CAT_ID": 30989, "ELEMENT_SET_NO": 999, "REV_AT_EPOCH": 95838, "BSTAR": 0.0018919159, "MEAN_MOTION_DOT": 3.688e-05, "MEAN_MOTION_DDOT": 0}, "tle": {"line1": "1 30989U 99025BCF 25336.13687613  .00003688  00000+0  18919-2 0  9992", "line2": "2 30989  99.0543  49.5693 0092066 129.5163 231.4193 14.13834483958382"}}, "geometry": {"type": "Point", "coordinates": [53.699896747086036, -19.709725141401965]}}, {"type": "Feature", "properties": {"norad_id": 30993, "name": "FENGYUN 1C DEB", "group": "fengyun-1c-debris", "lat": -63.921998827894434, "lon": -129.37918862937573, "alt_km": 792.6341214237436, "timestamp": "2025-12-02T23:34:15.796199+00:00", "meta": {"OBJECT_NAME": "FENGYUN 1C DEB", "OBJECT_ID": "1999-025BCK", "EPOCH": "2025-12-02T05:57:18.838944", "MEAN_MOTION": 14.35240905, "ECCENTRICITY": 0.0016672, "INCLINATION": 98.8479, "RA_OF_ASC_NODE": 68.4267, "ARG_OF_PERICENTER": 47.7896, "MEAN_ANOMALY": 7.2959, "EPHEMERIS_TYPE": 0, "CLASSIFICATION_TYPE": "U", "NORAD_CAT_ID": 30993, "ELEMENT_SET_NO": 999, "REV_AT_EPOCH": 96769, "BSTAR": 0.0023182, "MEAN_MOTION_DOT": 6.604e-05, "MEAN_MOTION_DDOT": 0}, "tle": {"line1": "1 30993U 99025BCK 25336.24813471  .00006604  00000+0  23182-2 0  9991", "line2": "2 30993  98.8479  68.4267 0016672  47.7896   7.2959 14.35240905967699"}}, "geometry": {"type": "Point", "coordinates": [-129.37918862937573, -63.921998827894434]}}, {"type": "Feature", "properties": {"norad_id": 30994, "name": "FENGYUN 1C DEB", "group": "fengyun-1c-debris", "lat": 29.926340167119214, "lon": -19.334772348895825, "alt_km": 864.1736973292664, "timestamp": "2025-12-02T23:34:15.796209+00:00", "meta": {"OBJECT_NAME": "FENGYUN 1C DEB", "OBJECT_ID": "1999-025BCL", "EPOCH": "2025-12-02T11:31:14.673216", "MEAN_MOTION": 14.11761253, "ECCENTRICITY": 0.0017313, "INCLINATION": 98.7004, "RA_OF_ASC_NODE": 345.2352, "ARG_OF_PERICENTER": 204.1397, "MEAN_ANOMALY": 155.8966, "EPHEMERIS_TYPE": 0, "CLASSIFICATION_TYPE": "U", "NORAD_CAT_ID": 30994, "ELEMENT_SET_NO": 999, "REV_AT_EPOCH": 96440, "BSTAR": 0.00020333, "MEAN_MOTION_DOT": 3.28e-06, "MEAN_MOTION_DDOT": 0}, "tle": {"line1": "1 30994U 99025BCL 25336.48003094  .00000328  00000+0  20333-3 0  9993", "line2": "2 30994  98.7004 345.2352 0017313 204.1397 155.8966 14.11761253964404"}}, "geometry": {"type": "Point", "coordinates": [-19.334772348895825, 29.926340167119214]}}]}